[
    {
        "Altitude(m)": 605470.7898623489,
        "Argument of Periapsis(deg)": 0.0,
        "Eccentricity": 0.0,
        "Inclination(deg)": 60.0,
        "Latitude(deg)": 27.988205706005754,
        "Longitude(deg)": 52.262902067451456,
        "Mean Anomaly(deg)": -212.72730000000004,
        "RAAN(deg)": 350.0,
        "Satellite Name": "Test1 1549",
        "Satellite Number": 1549,
        "Semi-Major Axis(m)": 6980739.136638005,
        "Time(s)": 0
    },
    {
        "Altitude(m)": 605395.8279076628,
        "Argument of Periapsis(deg)": 0.00010418945913296404,
        "Eccentricity": 0.0,
        "Inclination(deg)": 60.0,
        "Latitude(deg)": 27.47389692930808,
        "Longitude(deg)": 52.61609081488885,
        "Mean Anomaly(deg)": -212.1071938545382,
        "RAAN(deg)": 349.99957995086027,
        "Satellite Name": "Test1 1549",
        "Satellite Number": 1549,
        "Semi-Major Axis(m)": 6980739.136638005,
        "Time(s)": 10
    }
]